[{"OBJECT_NAME":"EXO-0","OBJECT_ID":"2023-174DK","EPOCH":"2026-03-09T17:03:04.419648","MEAN_MOTION":15.32821991,"ECCENTRICITY":0.00098779,"INCLINATION":97.3864,"RA_OF_ASC_NODE":148.9039,"ARG_OF_PERICENTER":157.1125,"MEAN_ANOMALY":203.0559,"EPHEMERIS_TYPE":0,"CLASSIFICATION_TYPE":"U","NORAD_CAT_ID":59175,"ELEMENT_SET_NO":999,"REV_AT_EPOCH":12979,"BSTAR":0.00036716083,"MEAN_MOTION_DOT":0.00011582,"MEAN_MOTION_DDOT":0},{"OBJECT_NAME":"STARLINK-32706","OBJECT_ID":"2024-239H","EPOCH":"2026-03-09T13:57:31.314816","MEAN_MOTION":15.301931,"ECCENTRICITY":0.0001231,"INCLINATION":53.159,"RA_OF_ASC_NODE":194.6839,"ARG_OF_PERICENTER":109.9886,"MEAN_ANOMALY":250.1247,"EPHEMERIS_TYPE":0,"CLASSIFICATION_TYPE":"U","NORAD_CAT_ID":62308,"ELEMENT_SET_NO":999,"REV_AT_EPOCH":6936,"BSTAR":0.00053663,"MEAN_MOTION_DOT":0.00015564,"MEAN_MOTION_DDOT":0}]
