EXO-0                   
1 59175U 23174DK  26068.71046781  .00011582  00000+0  36716-3 0  9992
2 59175  97.3864 148.9039 0009878 157.1125 203.0559 15.32821991129797
STARLINK-32706          
1 62308U 24239H   26068.58161244  .00015564  00000+0  53663-3 0  9998
2 62308  53.1590 194.6839 0001231 109.9886 250.1247 15.30193100 69360
